NORAD_CAT_ID,OBJECT_NAME,OBJECT_TYPE,EPOCH,MEAN_MOTION,ECCENTRICITY,INCLINATION,RA_OF_ASC_NODE,ARG_OF_PERICENTER,MEAN_ANOMALY,BSTAR,MEAN_MOTION_DOT,MEAN_MOTION_DDOT,TLE_LINE0,TLE_LINE1,TLE_LINE2,SEMIMAJOR_AXIS,PERIOD,APOGEE,PERIGEE,DECAYED
53616.0,STARLINK-4605,PAYLOAD,2024-04-30 10:51:51,15.08852123,0.0001351,53.2168,28.7207,86.8039,273.3108,0.00042768,6.527e-05,0.0,0 STARLINK-4605,1 53616U 22104AE  24121.45268158  .00006527  00000-0  42768-3 0  9999,2 53616  53.2168  28.7207 0001351  86.8039 273.3108 15.08852123 93492,6917.843,95.437,540.643,538.774,0.0
53616.0,STARLINK-4605,PAYLOAD,2024-04-30 21:59:34,15.08844046,0.0002471,53.2169,26.6379,86.521,273.6065,0.0003834,5.82e-05,0.0,0 STARLINK-4605,1 53616U 22104AE  24121.91636704  .00005820  00000-0  38340-3 0  9992,2 53616  53.2169  26.6379 0002471  86.5210 273.6065 15.08844046 93560,6917.868,95.437,541.442,538.024,0.0
53616.0,STARLINK-4605,PAYLOAD,2024-05-01 02:45:43,15.08845538,0.0001308,53.2185,25.7469,93.3313,266.7829,0.00011594,1.558e-05,0.0,0 STARLINK-4605,1 53616U 22104AE  24122.11508303  .00001558  00000-0  11594-3 0  9994,2 53616  53.2185  25.7469 0001308  93.3313 266.7829 15.08845538 92912,6917.863,95.437,540.633,538.824,0.0
53616.0,STARLINK-4605,PAYLOAD,2024-05-01 10:42:38,15.0885903,0.0001277,53.218,24.2587,77.7245,282.389,0.00038331,5.821e-05,0.0,0 STARLINK-4605,1 53616U 22104AE  24122.44627792  .00005821  00000-0  38331-3 0  9999,2 53616  53.2180  24.2587 0001277  77.7245 282.3890 15.08859030 92966,6917.822,95.436,540.571,538.804,0.0
53616.0,STARLINK-4605,PAYLOAD,2024-05-02 02:36:30,15.08842297,0.0001303,53.2183,21.284,85.0024,275.1117,9.3469e-05,1.2e-05,0.0,0 STARLINK-4605,1 53616U 22104AE  24123.10868379  .00001200  00000-0  93469-4 0  9992,2 53616  53.2183  21.2840 0001303  85.0024 275.1117 15.08842297 93066,6917.873,95.437,540.64,538.837,0.0
53616.0,STARLINK-4605,PAYLOAD,2024-05-02 10:33:25,15.08849972,0.000129,53.2184,19.7979,84.78,275.3339,0.00026538,3.939e-05,0.0,0 STARLINK-4605,1 53616U 22104AE  24123.43988099  .00003939  00000-0  26538-3 0  9993,2 53616  53.2184  19.7979 0001290  84.7800 275.3339 15.08849972 93790,6917.85,95.437,540.607,538.823,0.0
53616.0,STARLINK-4605,PAYLOAD,2024-05-03 10:24:12,15.08858875,0.0001499,53.2171,15.3371,92.3859,267.7304,0.0004049,6.165e-05,0.0,0 STARLINK-4605,1 53616U 22104AE  24124.43347614  .00006165  00000-0  40490-3 0  9993,2 53616  53.2171  15.3371 0001499  92.3859 267.7304 15.08858875 93265,6917.823,95.436,540.725,538.651,0.0
53616.0,STARLINK-4605,PAYLOAD,2024-05-03 19:56:32,15.08821787,0.0001267,53.218,13.5541,103.0797,257.0337,-0.00033552,-5.621e-05,0.0,0 STARLINK-4605,1 53616U 22104AE  24124.83092935 -.00005621  00000-0 -33552-3 0  9999,2 53616  53.2180  13.5541 0001267 103.0797 257.0337 15.08821787 93325,6917.936,95.439,540.678,538.925,0.0
53616.0,STARLINK-4605,PAYLOAD,2024-05-03 23:07:18,15.08824155,0.0001441,53.2184,12.9593,98.8153,261.3002,-0.00028615,-4.837e-05,0.0,0 STARLINK-4605,1 53616U 22104AE  24124.96340919 -.00004837  00000-0 -28615-3 0  9993,2 53616  53.2184  12.9593 0001441  98.8153 261.3002 15.08824155 94027,6917.929,95.439,540.791,538.797,0.0
53616.0,STARLINK-4605,PAYLOAD,2024-05-04 21:22:42,15.0885026,0.0001359,53.2181,8.7965,104.1451,255.9692,0.0013788,0.0002173,0.0,0 STARLINK-4605,1 53616U 22104AE  24125.89077511  .00021730  00000-0  13788-2 0  9994,2 53616  53.2181   8.7965 0001359 104.1451 255.9692 15.08850260 93489,6917.849,95.437,540.654,538.774,0.0
53616.0,STARLINK-4605,PAYLOAD,2024-05-05 02:08:52,15.08860965,0.0001281,53.2181,7.9053,102.585,257.5285,0.0017057,0.00026978,0.0,0 STARLINK-4605,1 53616U 22104AE  24126.08949328  .00026978  00000-0  17057-2 0  9992,2 53616  53.2181   7.9053 0001281 102.5850 257.5285 15.08860965 94195,6917.816,95.436,540.567,538.795,0.0
53616.0,STARLINK-4605,PAYLOAD,2024-05-05 21:13:29,15.08865182,0.0001849,53.2185,4.3363,127.9624,232.1535,0.0013702,0.00021601,0.0,0 STARLINK-4605,1 53616U 22104AE  24126.88436700  .00021601  00000-0  13702-2 0  9996,2 53616  53.2185   4.3363 0001849 127.9624 232.1535 15.08865182 93635,6917.803,95.436,540.948,538.389,0.0
53616.0,STARLINK-4605,PAYLOAD,2024-05-05 22:48:52,15.08866041,0.0001425,53.2185,4.0387,101.705,258.4103,0.00093013,0.00014557,0.0,0 STARLINK-4605,1 53616U 22104AE  24126.95060719  .00014557  00000-0  93013-3 0  9993,2 53616  53.2185   4.0387 0001425 101.7050 258.4103 15.08866041 94325,6917.801,95.436,540.652,538.68,0.0
53616.0,STARLINK-4605,PAYLOAD,2024-05-06 08:21:10,15.08872502,0.0001281,53.2175,2.2551,104.703,255.4104,0.00095425,0.00014945,0.0,0 STARLINK-4605,1 53616U 22104AE  24127.34804043  .00014945  00000-0  95425-3 0  9993,2 53616  53.2175   2.2551 0001281 104.7030 255.4104 15.08872502 93706,6917.781,95.435,540.532,538.76,0.0
53616.0,STARLINK-4605,PAYLOAD,2024-05-06 21:04:15,15.08849093,0.0001261,53.2172,359.8764,92.8897,267.224,8.5194e-05,1.069e-05,0.0,0 STARLINK-4605,1 53616U 22104AE  24127.87796060  .00001069  00000-0  85194-4 0  9996,2 53616  53.2172 359.8764 0001261  92.8897 267.2240 15.08849093 93785,6917.853,95.437,540.59,538.845,0.0
53616.0,STARLINK-4605,PAYLOAD,2024-05-06 22:39:38,15.08851668,0.0001218,53.2172,359.5795,94.3916,265.7216,0.00014618,2.04e-05,0.0,0 STARLINK-4605,1 53616U 22104AE  24127.94420021  .00002040  00000-0  14618-3 0  9997,2 53616  53.2172 359.5795 0001218  94.3916 265.7216 15.08851668 94471,6917.845,95.437,540.552,538.867,0.0
53616.0,STARLINK-4605,PAYLOAD,2024-05-07 08:11:57,15.08867026,0.0001337,53.2187,357.795,86.9301,273.1844,0.00067256,0.0001044,0.0,0 STARLINK-4605,1 53616U 22104AE  24128.34163385  .00010440  00000-0  67256-3 0  9998,2 53616  53.2187 357.7950 0001337  86.9301 273.1844 15.08867026 93853,6917.798,95.436,540.588,538.738,0.0
53616.0,STARLINK-4605,PAYLOAD,2024-05-07 20:55:03,15.08828195,0.0001308,53.2182,355.4163,83.7656,276.3485,-0.00023113,-3.963e-05,0.0,0 STARLINK-4605,1 53616U 22104AE  24128.87156439 -.00003963  00000-0 -23113-3 0  9996,2 53616  53.2182 355.4163 0001308  83.7656 276.3485 15.08828195 93934,6917.916,95.438,540.686,538.877,0.0
53616.0,STARLINK-4605,PAYLOAD,2024-05-07 22:30:26,15.08824528,0.000135,53.2176,355.1186,79.0422,281.0722,5.9026e-05,6.51e-06,0.0,0 STARLINK-4605,1 53616U 22104AE  24128.93780568  .00000651  00000-0  59026-4 0  9991,2 53616  53.2176 355.1186 0001350  79.0422 281.0722 15.08824528 94625,6917.928,95.439,540.727,538.859,0.0
53616.0,STARLINK-4605,PAYLOAD,2024-05-08 08:02:45,15.08831878,0.0001317,53.2176,353.3358,82.8819,277.2323,0.00081309,0.00012673,0.0,0 STARLINK-4605,1 53616U 22104AE  24129.33525005  .00012673  00000-0  81309-3 0  9994,2 53616  53.2176 353.3358 0001317  82.8819 277.2323 15.08831878 94687,6917.905,95.438,540.681,538.859,0.0
53616.0,STARLINK-4605,PAYLOAD,2024-05-08 22:21:14,15.08835371,0.0001368,53.217,350.6558,74.2627,285.8516,0.00054277,8.36e-05,0.0,0 STARLINK-4605,1 53616U 22104AE  24129.93141455  .00008360  00000-0  54277-3 0  9995,2 53616  53.2170 350.6558 0001368  74.2627 285.8516 15.08835371 94772,6917.895,95.438,540.706,538.813,0.0
53616.0,STARLINK-4605,PAYLOAD,2024-05-08 23:56:37,15.08840209,0.0001273,53.2172,350.3581,80.2023,279.9113,0.00070473,0.00010946,0.0,0 STARLINK-4605,1 53616U 22104AE  24129.99765215  .00010946  00000-0  70473-3 0  9996,2 53616  53.2172 350.3581 0001273  80.2023 279.9113 15.08840209 94109,6917.88,95.438,540.625,538.864,0.0
53616.0,STARLINK-4605,PAYLOAD,2024-05-09 07:53:32,15.088523,0.0001254,53.2173,348.8736,85.4836,274.63,0.0010431,0.00016357,0.0,0 STARLINK-4605,1 53616U 22104AE  24130.32885173  .00016357  00000-0  10431-2 0  9990,2 53616  53.2173 348.8736 0001254  85.4836 274.6300 15.08852300 94837,6917.843,95.437,540.575,538.84,0.0
53616.0,STARLINK-4605,PAYLOAD,2024-05-09 20:36:37,15.08845847,0.0001203,53.2155,346.4954,82.8573,277.2556,0.00045208,6.915e-05,0.0,0 STARLINK-4605,1 53616U 22104AE  24130.85877247  .00006915  00000-0  45208-3 0  9991,2 53616  53.2155 346.4954 0001203  82.8573 277.2556 15.08845847 94230,6917.863,95.437,540.56,538.895,0.0
53616.0,STARLINK-4605,PAYLOAD,2024-05-09 22:12:01,15.08850993,0.000127,53.2166,346.1975,82.2539,277.8597,0.00059762,9.239e-05,0.0,0 STARLINK-4605,1 53616U 22104AE  24130.92501222  .00009239  00000-0  59762-3 0  9998,2 53616  53.2166 346.1975 0001270  82.2539 277.8597 15.08850993 94927,6917.847,95.437,540.59,538.833,0.0
53616.0,STARLINK-4605,PAYLOAD,2024-05-10 14:05:52,15.08862576,0.0002545,53.2172,343.2244,85.5023,274.626,0.00080232,0.00012512,0.0,0 STARLINK-4605,1 53616U 22104AE  24131.58741088  .00012512  00000-0  80232-3 0  9991,2 53616  53.2172 343.2244 0002545  85.5023 274.6260 15.08862576 95025,6917.811,95.436,541.437,537.916,0.0
53616.0,STARLINK-4605,PAYLOAD,2024-05-10 20:27:24,15.08858503,0.0001184,53.2167,342.0332,102.4071,257.7054,0.001208,0.00018999,0.0,0 STARLINK-4605,1 53616U 22104AE  24131.85236934  .00018999  00000-0  12080-2 0  9990,2 53616  53.2167 342.0332 0001184 102.4071 257.7054 15.08858503 95066,6917.824,95.436,540.508,538.87,0.0
53616.0,STARLINK-4605,PAYLOAD,2024-05-10 23:38:10,15.08866837,0.0001254,53.217,341.438,109.9745,250.1382,0.0016307,0.00025779,0.0,0 STARLINK-4605,1 53616U 22104AE  24131.98484775  .00025779  00000-0  16307-2 0  9992,2 53616  53.2170 341.4380 0001254 109.9745 250.1382 15.08866837 94401,6917.798,95.436,540.531,538.796,0.0
53616.0,STARLINK-4605,PAYLOAD,2024-05-11 20:18:10,15.08811455,0.0001652,53.2198,337.5734,104.7217,255.3959,-0.0039316,-0.00062271,0.0,0 STARLINK-4605,1 53616U 22104AE  24132.84595164 -.00062271  00000-0 -39316-2 0  9998,2 53616  53.2198 337.5734 0001652 104.7217 255.3959 15.08811455 94536,6917.968,95.439,540.975,538.69,0.0
53616.0,STARLINK-4605,PAYLOAD,2024-05-11 23:28:57,15.08765594,0.0001416,53.2172,336.9782,91.246,268.8694,-0.0044334,-0.00070017,0.0,0 STARLINK-4605,1 53616U 22104AE  24132.97844175 -.00070017  00000-0 -44334-2 0  9994,2 53616  53.2172 336.9782 0001416  91.2460 268.8694 15.08765594 94551,6918.108,95.442,540.952,538.993,0.0
